[{"OBJECT_NAME":"STARLINK-3940","OBJECT_ID":"2022-051H","EPOCH":"2026-03-09T13:19:58.783872","MEAN_MOTION":15.08839724,"ECCENTRICITY":0.0001231,"INCLINATION":53.2172,"RA_OF_ASC_NODE":129.7624,"ARG_OF_PERICENTER":89.5983,"MEAN_ANOMALY":270.515,"EPHEMERIS_TYPE":0,"CLASSIFICATION_TYPE":"U","NORAD_CAT_ID":52540,"ELEMENT_SET_NO":999,"REV_AT_EPOCH":21142,"BSTAR":1.2571e-5,"MEAN_MOTION_DOT":-8.8e-7,"MEAN_MOTION_DDOT":0},{"OBJECT_NAME":"COSMOS 397 DEB","OBJECT_ID":"1971-015F","EPOCH":"2026-03-09T14:07:56.812800","MEAN_MOTION":14.44057548,"ECCENTRICITY":0.0359355,"INCLINATION":65.7322,"RA_OF_ASC_NODE":253.6291,"ARG_OF_PERICENTER":256.9911,"MEAN_ANOMALY":99.0843,"EPHEMERIS_TYPE":0,"CLASSIFICATION_TYPE":"U","NORAD_CAT_ID":5012,"ELEMENT_SET_NO":999,"REV_AT_EPOCH":68609,"BSTAR":0.0017017,"MEAN_MOTION_DOT":0.00012865,"MEAN_MOTION_DDOT":0}]
